{
    "links": {
        "self": "http://www.neowsapp.com/rest/v1/neo/3799755?api_key=iIulBulltgU6a56xZRHN4H3l9WmuAYTsLGpBGhQ2"
    },
    "id": "3799755",
    "neo_reference_id": "3799755",
    "name": "(2018 DC2)",
    "designation": "2018 DC2",
    "nasa_jpl_url": "http://ssd.jpl.nasa.gov/sbdb.cgi?sstr=3799755",
    "absolute_magnitude_h": 26.8,
    "estimated_diameter": {
        "kilometers": {
            "estimated_diameter_min": 0.0116025908,
            "estimated_diameter_max": 0.0259441818
        },
        "meters": {
            "estimated_diameter_min": 11.6025908209,
            "estimated_diameter_max": 25.9441817907
        },
        "miles": {
            "estimated_diameter_min": 0.0072095135,
            "estimated_diameter_max": 0.0161209622
        },
        "feet": {
            "estimated_diameter_min": 38.066244069,
            "estimated_diameter_max": 85.1187093863
        }
    },
    "is_potentially_hazardous_asteroid": false,
    "close_approach_data": [
        {
            "close_approach_date": "2018-02-20",
            "close_approach_date_full": "2018-Feb-20 20:11",
            "epoch_date_close_approach": 1519157460000,
            "relative_velocity": {
                "kilometers_per_second": "8.8261127586",
                "kilometers_per_hour": "31774.0059308948",
                "miles_per_hour": "19743.1316296719"
            },
            "miss_distance": {
                "astronomical": "0.0161549654",
                "lunar": "6.2842815406",
                "kilometers": "2416748.413763698",
                "miles": "1501697.8296591124"
            },
            "orbiting_body": "Earth"
        },
        {
            "close_approach_date": "2042-03-28",
            "close_approach_date_full": "2042-Mar-28 13:52",
            "epoch_date_close_approach": 2279627520000,
            "relative_velocity": {
                "kilometers_per_second": "21.3622295045",
                "kilometers_per_hour": "76904.0262163145",
                "miles_per_hour": "47785.1711786872"
            },
            "miss_distance": {
                "astronomical": "0.4216460638",
                "lunar": "164.0203188182",
                "kilometers": "63077353.038364106",
                "miles": "39194449.7072564228"
            },
            "orbiting_body": "Earth"
        }
    ],
    "orbital_data": {
        "orbit_id": "1",
        "orbit_determination_date": "2018-02-27 08:12:06",
        "first_observation_date": "2018-02-25",
        "last_observation_date": "2018-02-27",
        "data_arc_in_days": 2,
        "observations_used": 28,
        "orbit_uncertainty": "8",
        "minimum_orbit_intersection": ".0161399",
        "jupiter_tisserand_invariant": "3.746",
        "epoch_osculation": "2458175.5",
        "eccentricity": ".5076115183728188",
        "semi_major_axis": "1.926170944492203",
        "inclination": "4.979208965881177",
        "ascending_node_longitude": "341.283305677264",
        "orbital_period": "976.4289965984836",
        "perihelion_distance": ".9484243867129095",
        "perihelion_argument": "139.4451846963454",
        "aphelion_distance": "2.903917502271497",
        "perihelion_time": "2458145.815831483640",
        "mean_anomaly": "10.94426804521036",
        "mean_motion": ".3686904027370208",
        "equinox": "J2000",
        "orbit_class": {
            "orbit_class_type": "APO",
            "orbit_class_description": "Near-Earth asteroid orbits which cross the Earth’s orbit similar to that of 1862 Apollo",
            "orbit_class_range": "a (semi-major axis) > 1.0 AU; q (perihelion) < 1.017 AU"
        }
    },
    "is_sentry_object": false
}